{
  "norad_id": 62926,
  "name": "STARLINK-32922",
  "history": [
    {
      "epoch": "2026-03-28T20:50:33.501984Z",
      "apogee_km": 483.6974490312632,
      "perigee_km": 482.30957752823633,
      "latitude_deg": -4.036577937065442e-06,
      "longitude_deg": -118.2084086044413,
      "height_km": 482.72675313458797,
      "semi_major_axis_km": 6861.14051327975,
      "eccentricity": 0.00010114,
      "inclination_deg": 43.0015,
      "raan_deg": 20.7139,
      "arg_perigee_deg": 274.4052,
      "mean_anomaly_deg": 85.6684,
      "mean_motion_rev_day": 15.27595223
    },
    {
      "epoch": "2026-03-28T23:58:52.099968Z",
      "apogee_km": 483.7397012922356,
      "perigee_km": 482.232998604587,
      "latitude_deg": -3.754488458031217e-05,
      "longitude_deg": -166.1538295775569,
      "height_km": 482.8422727839444,
      "semi_major_axis_km": 6861.1233499484115,
      "eccentricity": 0.0001098,
      "inclination_deg": 43.0034,
      "raan_deg": 19.9749,
      "arg_perigee_deg": 263.972,
      "mean_anomaly_deg": 96.1006,
      "mean_motion_rev_day": 15.27600955
    },
    {
      "epoch": "2026-03-29T23:31:12.451008Z",
      "apogee_km": 484.1066112111512,
      "perigee_km": 481.9124165560106,
      "latitude_deg": -3.7496470835932405e-05,
      "longitude_deg": -165.74743684901213,
      "height_km": 483.2218714875253,
      "semi_major_axis_km": 6861.14651388358,
      "eccentricity": 0.0001599,
      "inclination_deg": 43.0035,
      "raan_deg": 14.4328,
      "arg_perigee_deg": 246.6251,
      "mean_anomaly_deg": 113.4432,
      "mean_motion_rev_day": 15.27593219
    }
  ]
}